LEMUR-2-ANDIS           
1 42838U 17042P   26068.55941107  .00023598  00000+0  79875-3 0  9998
2 42838  97.3659 249.7950 0009101   4.3248 355.8070 15.30557934473198
STARLINK-33984          
1 63830U 25092AC  26068.28421678  .00025027  00000+0  91558-3 0  9994
2 63830  43.0041 174.7438 0001904 287.0830  72.9813 15.27590653 48555
